1 14780U 84021A   09097.11928716  .00000026  00000-0  15828-4 0  5267
2 14780  98.2488 165.3615 0002356 354.9711   5.1471 14.57090818335039
1 14780U 84021A   10152.79137462  .00000063  00000-0  23932-4 0  8433
2 14780  98.1993 220.9160 0003790  99.7505 260.4113 14.57118569396298
